NORAD_CAT_ID,OBJECT_NAME,OBJECT_TYPE,EPOCH,MEAN_MOTION,ECCENTRICITY,INCLINATION,RA_OF_ASC_NODE,ARG_OF_PERICENTER,MEAN_ANOMALY,BSTAR,MEAN_MOTION_DOT,MEAN_MOTION_DDOT,TLE_LINE0,TLE_LINE1,TLE_LINE2,SEMIMAJOR_AXIS,PERIOD,APOGEE,PERIGEE,DECAYED
55667.0,STARLINK-5456,PAYLOAD,2023-11-06 14:48:00,14.98334847,0.0002352,70.0017,157.8397,271.0945,88.9945,6.5437e-05,6.88e-06,0.0,0 STARLINK-5456,1 55667U 23021AR  23310.61667654  .00000688  00000-0  65437-4 0  9998,2 55667  70.0017 157.8397 0002352 271.0945  88.9945 14.98334847 41353,6950.178,96.107,573.678,570.408,0.0
55667.0,STARLINK-5456,PAYLOAD,2023-11-06 21:12:33,14.98340185,0.0002088,70.0001,157.1662,269.8836,90.2083,-0.00017746,-2.21e-05,0.0,0 STARLINK-5456,1 55667U 23021AR  23310.88371920 -.00002210  00000-0 -17746-3 0  9999,2 55667  70.0001 157.1662 0002088 269.8836  90.2083 14.98340185 41399,6950.161,96.106,573.478,570.575,0.0
55667.0,STARLINK-5456,PAYLOAD,2023-11-07 00:24:49,14.98329012,0.0002356,70.0003,156.8293,271.938,88.1509,-1.1668e-05,-2.32e-06,0.0,0 STARLINK-5456,1 55667U 23021AR  23311.01724142 -.00000232  00000-0 -11668-4 0  9993,2 55667  70.0003 156.8293 0002356 271.9380  88.1509 14.98329012 41118,6950.196,96.107,573.698,570.423,0.0
55667.0,STARLINK-5456,PAYLOAD,2023-11-07 06:49:22,14.98325391,0.0002308,70.0,156.1561,275.2155,84.8741,-7.8431e-05,-1.028e-05,0.0,0 STARLINK-5456,1 55667U 23021AR  23311.28428559 -.00001028  00000-0 -78431-4 0  9990,2 55667  70.0000 156.1561 0002308 275.2155  84.8741 14.98325391 41454,6950.207,96.107,573.676,570.468,0.0
55667.0,STARLINK-5456,PAYLOAD,2023-11-07 19:38:27,14.98322825,0.0002382,70.0005,154.8098,270.8758,89.2128,-0.00018663,-2.319e-05,0.0,0 STARLINK-5456,1 55667U 23021AR  23311.81837065 -.00002319  00000-0 -18663-3 0  9999,2 55667  70.0005 154.8098 0002382 270.8758  89.2128 14.98322825 41234,6950.215,96.107,573.736,570.425,0.0
55667.0,STARLINK-5456,PAYLOAD,2023-11-08 13:15:55,14.98319636,0.000269,69.9991,152.9581,276.2165,83.8687,-4.9467e-05,-6.83e-06,0.0,0 STARLINK-5456,1 55667U 23021AR  23312.55273146 -.00000683  00000-0 -49467-4 0  9994,2 55667  69.9991 152.9581 0002690 276.2165  83.8687 14.98319636 41646,6950.225,96.108,573.96,570.22,0.0
55667.0,STARLINK-5456,PAYLOAD,2023-11-08 19:40:28,14.9832162,0.0002573,69.9993,152.2848,269.8782,90.2082,-2.2152e-05,-3.57e-06,0.0,0 STARLINK-5456,1 55667U 23021AR  23312.81977084 -.00000357  00000-0 -22152-4 0  9995,2 55667  69.9993 152.2848 0002573 269.8782  90.2082 14.98321620 41388,6950.219,96.108,573.872,570.296,0.0
55667.0,STARLINK-5456,PAYLOAD,2023-11-08 21:16:36,14.98322054,0.0002718,69.9987,152.1158,272.9875,87.0973,-2.2921e-05,-3.66e-06,0.0,0 STARLINK-5456,1 55667U 23021AR  23312.88653129 -.00000366  00000-0 -22921-4 0  9997,2 55667  69.9987 152.1158 0002718 272.9875  87.0973 14.98322054 41692,6950.217,96.108,573.972,570.193,0.0
55667.0,STARLINK-5456,PAYLOAD,2023-11-09 13:17:57,14.98318869,0.0002652,69.9984,150.4319,277.025,83.0608,0.00011651,1.297e-05,0.0,0 STARLINK-5456,1 55667U 23021AR  23313.55413340  .00001297  00000-0  11651-3 0  9990,2 55667  69.9984 150.4319 0002652 277.0250  83.0608 14.98318869 41790,6950.227,96.108,573.936,570.249,0.0
55667.0,STARLINK-5456,PAYLOAD,2023-11-09 19:42:29,14.9832222,0.0002896,69.9987,149.7591,273.6457,86.4371,0.00012854,1.441e-05,0.0,0 STARLINK-5456,1 55667U 23021AR  23313.82117172  .00001441  00000-0  12854-3 0  9991,2 55667  69.9987 149.7591 0002896 273.6457  86.4371 14.98322220 41539,6950.217,96.107,574.095,570.069,0.0
55667.0,STARLINK-5456,PAYLOAD,2023-11-09 21:18:37,14.98323257,0.0002873,69.9986,149.5909,273.9798,86.1032,0.00013792,1.553e-05,0.0,0 STARLINK-5456,1 55667U 23021AR  23313.88793115  .00001553  00000-0  13792-3 0  9990,2 55667  69.9986 149.5909 0002873 273.9798  86.1032 14.98323257 41841,6950.214,96.107,574.076,570.082,0.0
55667.0,STARLINK-5456,PAYLOAD,2023-11-10 14:56:05,14.98331452,0.000285,69.9987,147.7399,274.5839,85.4994,9.939e-05,1.093e-05,0.0,0 STARLINK-5456,1 55667U 23021AR  23314.62228892  .00001093  00000-0  99390-4 0  9996,2 55667  69.9987 147.7399 0002850 274.5839  85.4994 14.98331452 41950,6950.188,96.107,574.034,570.073,0.0
55667.0,STARLINK-5456,PAYLOAD,2023-11-10 19:44:29,14.9833242,0.0002846,69.9989,147.2348,274.366,85.7173,0.00010394,1.147e-05,0.0,0 STARLINK-5456,1 55667U 23021AR  23314.82256791  .00001147  00000-0  10394-3 0  9993,2 55667  69.9989 147.2348 0002846 274.3660  85.7173 14.98332420 41684,6950.185,96.107,574.028,570.072,0.0
55667.0,STARLINK-5456,PAYLOAD,2023-11-11 13:21:58,14.98339612,0.0002819,69.9989,145.3833,274.671,85.4127,7.5539e-05,8.09e-06,0.0,0 STARLINK-5456,1 55667U 23021AR  23315.55692154  .00000809  00000-0  75539-4 0  9998,2 55667  69.9989 145.3833 0002819 274.6710  85.4127 14.98339612 42093,6950.163,96.106,573.987,570.069,0.0
55667.0,STARLINK-5456,PAYLOAD,2023-11-11 19:46:29,14.98341267,0.0002821,69.999,144.71,274.7002,85.3835,8.7172e-05,9.48e-06,0.0,0 STARLINK-5456,1 55667U 23021AR  23315.82395829  .00000948  00000-0  87172-4 0  9997,2 55667  69.9990 144.7100 0002821 274.7002  85.3835 14.98341267 41838,6950.158,96.106,573.984,570.062,0.0
55667.0,STARLINK-5456,PAYLOAD,2023-11-11 21:22:37,14.98350804,0.0002322,69.9999,144.5398,271.9664,88.123,0.00020664,2.375e-05,0.0,0 STARLINK-5456,1 55667U 23021AR  23315.89070866  .00002375  00000-0  20664-3 0  9993,2 55667  69.9999 144.5398 0002322 271.9664  88.1230 14.98350804 42145,6950.129,96.106,573.607,570.38,0.0
55667.0,STARLINK-5456,PAYLOAD,2023-11-11 22:58:42,14.98385861,0.0002844,69.999,144.3732,271.0354,89.0479,0.00056903,6.713e-05,0.0,0 STARLINK-5456,1 55667U 23021AR  23315.95743531  .00006713  00000-0  56903-3 0  9991,2 55667  69.9990 144.3732 0002844 271.0354  89.0479 14.98385861 41855,6950.02,96.103,573.862,569.909,0.0
55667.0,STARLINK-5456,PAYLOAD,2023-11-12 11:47:22,14.98645439,0.0002719,69.9991,143.0257,283.2095,76.8761,0.0031142,0.0003757,0.0,0 STARLINK-5456,1 55667U 23021AR  23316.49122942  .00037570  00000-0  31142-2 0  9990,2 55667  69.9991 143.0257 0002719 283.2095  76.8761 14.98645439 41939,6949.218,96.087,572.972,569.193,0.0
55667.0,STARLINK-5456,PAYLOAD,2023-11-12 13:23:23,14.98720489,0.0002372,69.9991,142.8571,271.0245,89.0642,0.0038783,0.00046965,0.0,0 STARLINK-5456,1 55667U 23021AR  23316.55790932  .00046965  00000-0  38783-2 0  9993,2 55667  69.9991 142.8571 0002372 271.0245  89.0642 14.98720489 42240,6948.986,96.082,572.499,569.202,0.0
55667.0,STARLINK-5456,PAYLOAD,2023-11-12 18:11:38,14.98781355,0.000298,69.9991,142.3518,278.8148,81.2674,0.0043343,0.00052625,0.0,0 STARLINK-5456,1 55667U 23021AR  23316.75808848  .00052625  00000-0  43343-2 0  9999,2 55667  69.9991 142.3518 0002980 278.8148  81.2674 14.98781355 41975,6948.797,96.078,572.733,568.592,0.0
55667.0,STARLINK-5456,PAYLOAD,2023-11-12 19:47:45,14.98787071,0.0002866,69.9991,142.1833,275.3273,84.7559,0.0043177,0.00052429,0.0,0 STARLINK-5456,1 55667U 23021AR  23316.82482683  .00052429  00000-0  43177-2 0  9999,2 55667  69.9991 142.1833 0002866 275.3273  84.7559 14.98787071 42283,6948.78,96.078,572.636,568.653,0.0
55667.0,STARLINK-5456,PAYLOAD,2023-11-13 05:24:21,14.98821602,0.0002934,69.999,141.1728,273.8538,86.2285,0.0041951,0.00050973,0.0,0 STARLINK-5456,1 55667U 23021AR  23317.22524909  .00050973  00000-0  41951-2 0  9992,2 55667  69.9990 141.1728 0002934 273.8538  86.2285 14.98821602 42346,6948.673,96.075,572.577,568.499,0.0
55667.0,STARLINK-5456,PAYLOAD,2023-11-13 18:13:08,14.98869746,0.0003036,69.999,139.8255,276.9441,83.1373,0.0039547,0.00048087,0.0,0 STARLINK-5456,1 55667U 23021AR  23317.75912463  .00048087  00000-0  39547-2 0  9997,2 55667  69.9990 139.8255 0003036 276.9441  83.1373 14.98869746 42127,6948.524,96.072,572.499,568.28,0.0
55667.0,STARLINK-5456,PAYLOAD,2023-11-13 23:01:25,14.98886454,0.0002936,69.999,139.3202,272.7173,87.365,0.0038353,0.00046643,0.0,0 STARLINK-5456,1 55667U 23021AR  23317.95932038  .00046643  00000-0  38353-2 0  9999,2 55667  69.9990 139.3202 0002936 272.7173  87.3650 14.98886454 42150,6948.473,96.071,572.378,568.298,0.0
55667.0,STARLINK-5456,PAYLOAD,2023-11-14 13:26:11,14.99071238,0.000294,69.999,137.8043,280.1212,79.9616,0.0011184,0.00013536,0.0,0 STARLINK-5456,1 55667U 23021AR  23318.55985726  .00013536  00000-0  11184-2 0  9996,2 55667  69.9990 137.8043 0002940 280.1212  79.9616 14.99071238 42547,6947.902,96.059,571.809,567.724,0.0
55667.0,STARLINK-5456,PAYLOAD,2023-11-14 18:14:26,14.99122365,0.0003188,69.999,137.299,276.1744,83.9052,0.00032636,3.883e-05,0.0,0 STARLINK-5456,1 55667U 23021AR  23318.76002505  .00003883  00000-0  32636-3 0  9994,2 55667  69.9990 137.2990 0003188 276.1744  83.9052 14.99122365 42279,6947.744,96.056,571.824,567.394,0.0
55667.0,STARLINK-5456,PAYLOAD,2023-11-14 21:26:36,14.9912112,0.0003182,69.9987,136.9622,276.4398,83.6399,0.00036669,4.375e-05,0.0,0 STARLINK-5456,1 55667U 23021AR  23318.89347380  .00004375  00000-0  36669-3 0  9998,2 55667  69.9987 136.9622 0003182 276.4398  83.6399 14.99121120 42599,6947.747,96.056,571.823,567.402,0.0
55667.0,STARLINK-5456,PAYLOAD,2023-11-15 13:27:25,14.99136929,0.0003139,69.9989,135.2781,275.2949,84.7853,-1.5579e-05,-2.84e-06,0.0,0 STARLINK-5456,1 55667U 23021AR  23319.56071387 -.00000284  00000-0 -15579-4 0  9999,2 55667  69.9989 135.2781 0003139 275.2949  84.7853 14.99136929 42691,6947.699,96.055,571.745,567.383,0.0
55667.0,STARLINK-5456,PAYLOAD,2023-11-15 22:00:00,14.99117311,0.000326,70.0001,134.3783,276.2942,204.3537,0.0034078,0.00041654,0.0,0 STARLINK-5456,1 55667U 23021AR  23319.91667824  .00041654  00000-0  34078-2 0  9992,2 55667  70.0001 134.3783 0003260 276.2942 204.3537 14.99117311 42446,6947.759,96.057,571.889,567.359,0.0
55667.0,STARLINK-5456,PAYLOAD,2023-11-16 11:52:34,14.99140585,0.0003176,69.9984,132.9187,273.8041,86.2755,-1.618e-05,-2.91e-06,0.0,0 STARLINK-5456,1 55667U 23021AR  23320.49484750 -.00000291  00000-0 -16180-4 0  9992,2 55667  69.9984 132.9187 0003176 273.8041  86.2755 14.99140585 42532,6947.687,96.055,571.759,567.346,0.0
